55169,ONEWEB-0628,2023,109.72,148.0,+,87.9,Active,1,LEO,USA,UK,Commercial,Communications,Falcon,1 55169U 23004AF  24195.88747976  .00000522  00000+0  14142-2 0  9994,2 55169  87.8957 130.6893 0002532  98.4642 261.6773 13.12443898 75789,13.12443898,0.0002532,LEO
55170,ONEWEB-0629,2023,109.29,-1.0,+,87.92,Active,0,LEO,USA,UK,Unknown,Unknown,Unknown,1 55170U 23004AG  24195.88908041 -.00000029  00000+0 -10736-3 0  9998,2 55170  87.9181 145.9103 0002556  86.1445 273.9979 13.17652501 74966,13.17652501,0.0002556,LEO
55171,ONEWEB-0631,2023,109.2,-1.0,+,87.92,Active,0,LEO,USA,UK,Unknown,Unknown,Unknown,1 55171U 23004AH  24195.80172498  .00000100  00000+0  22157-3 0  9998,2 55171  87.9158 115.4438 0001393  89.1679 270.9612 13.18684262 76978,13.18684262,0.0001393,LEO
55172,ONEWEB-0709,2023,109.8,-1.0,+,87.9,Active,0,LEO,USA,UK,Unknown,Unknown,Unknown,1 55172U 23004AJ  24195.90071491  .00000485  00000+0  13337-2 0  9996,2 55172  87.8974 161.0799 0001050  67.2131 292.9108 13.11416502 73694,13.11416502,0.000105,LEO
55173,ONEWEB-0710,2023,109.29,-1.0,+,87.92,Active,0,LEO,USA,UK,Unknown,Unknown,Unknown,1 55173U 23004AK  24195.88343677  .00000043  00000+0  78752-4 0  9996,2 55173  87.9181 145.9239 0001944  84.1888 275.9465 13.17646384 74962,13.17646384,0.0001944,LEO
55174,ONEWEB-0711,2023,109.8,-1.0,+,87.9,Active,0,LEO,USA,UK,Unknown,Unknown,Unknown,1 55174U 23004AL  24195.94818125 -.00000115  00000+0 -35986-3 0  9992,2 55174  87.8977 161.0396 0002397 106.1592 253.9800 13.11419658 73669,13.11419658,0.0002397,LEO
55175,ONEWEB-0713,2023,109.8,-1.0,+,87.9,Active,0,LEO,USA,UK,Unknown,Unknown,Unknown,1 55175U 23004AM  24196.19574930  .00000548  00000+0  15101-2 0  9998,2 55175  87.8976 160.9987 0002185  94.3044 265.8333 13.11419196 73680,13.11419196,0.0002185,LEO
55176,ONEWEB-0715,2023,109.8,-1.0,+,87.9,Active,0,LEO,USA,UK,Unknown,Unknown,Unknown,1 55176U 23004AN  24195.88545880  .00000447  00000+0  12262-2 0  9999,2 55176  87.8977 161.0602 0001681  88.1116 272.0205 13.11418416 73681,13.11418416,0.0001681,LEO
